Company,Address,City,State,Zip,Counry,Phone
4ROSES - Four Roses Gift Shop,1224 Bonds Mill Rd,Lawrenceburg,KY,40342,USA,502-839-2638
ALLBEV - Alltech-Beverage Division,475 Angliana Avenue,Lexington,KY,40508,USA,859-248-0231
AMSADD - American Saddlebred Museum,4083 Iron Works Parkway,Lexington,KY,40511,USA,859-259-2746 Ext. 309
ARTOWL - Artisan Owl-Accounts Payable,1150 South Street,Suffield,CT,6078,USA,413-831-0630
BARHSE - Barrel House Distilling Co.,1200 Manchester Street,Lexington,KY,40504,USA,859-259-0159
BBQMOR - BBQ & More,321 Broadway Street,Paducah,KY,42001,USA,270-534-5951
BROWNH - The Brown Hotel,335 West Broadway,Louisville,KY,40202,USA,502-583-1234
CLSADH - Claudia Sanders Dinner House,3202 Shelbyville Rd,Shelbyville,KY,40065,USA,502-633-5600
CORVET - National Corvette Museum,350 Corvette Dr,Bowling Green,KY,42101,USA,270-781-7973
DUELGR - Dueling Grounds Distillery,545 George Taylor Rd.,Franklin,KY,42134,USA,270-776-9046
EVERGR - Evergreen Liquors,11516 Main Street,Louisville,KY,40243,USA,502-244-0064 ext 102
FRAZMU - Frazier History Museum,829 West Main Street,Louisville,KY,40202,USA,502-412-2040
HEAVEN - Heaven Hill,1064 Loretto Rd.,Bardstown,KY,40004,USA,502-337-9557
HUMPIP - Humidor Pipe Shop,2502 Memorial Pkwy Sw,Hunstville,AL,35801,USA,256-539-6431
JIMBUS - Jim Beam Urban Stillhouse,404 South 4th Street,Louisville,KY,40202,USA,502-855-8392
KHPGS  - Ky Horse Park Gift Shop,4089 Iron Works Pkwy,Lexington,KY,40511,USA,859-259-4244
KYDERB - Kentucky Derby Museum,PO Box 21177,Louisville,KY,402221,USA,502-637-1111 X 261
LEXBOU - Lexington Bourbon Society,801 Cooper Drive,Lexington,KY,40502,USA,859-940-2567
LIMEST - Limestone Branch Distillery -,5050 Kemper Ave.,Saint Louis,MO,63139,USA,270-699-9004
LVC    - Louisville Visitors Center,301 South 4Th Street,Louisville,KY,40202,USA,502-379-6109
MARGGT - Marriott Griffin Gate,1800 Newtown Pike,Lexington,KY,40511,USA,859-288-6103
MARKHM - Mark's Hallmark - Way Producti,10 Glen Arden Rd.,Glenview,KY,40025-7511,USA,502-899-5961 ext 101 Ther
MBROLL - MB Roland Distillery,137 Barkers Mill Rd,Pembroke,KY,42266,USA,270-640-7744
MICHTE - Michter's Distillery,2351 New Millennium Drive,Louisville,KY,40216,USA,502-774-2300 x507
MMGIFT - Maker's Mark Distillery-Gift Shop,3350 Burks Spring Road,Loretto,KY,40037,USA,270-865-2099
NETJAR - Nettie Jarvis,111 Taylorsville Road,Bloomfield,KY,40008,USA,502-331-2523
OLDPOG - Old Pogue,716 West Second Street,Maysville,KY,41056,USA,503-272-1876
PARTYK - Party Kits & Equestrian Gifts,2239 Millvale Road,Louisville,KY,40205,USA,502-261-7111
PARTYS - The Party Source,95 Riviera Drive,Bellevue,KY,41073,USA,859-291-4007
PEGGYS - Peggy's Gifts,112 Clay Avenue,Lexington,KY,40502,USA,859-255-3188
RUTHHU - Ruth Hunt Candy Co.,PO Box 265,Mt. Sterling,KY,40353,USA,859-498-0676
TALBTV - Old Talbott Tavern,107 West Stephen Foster Ave.,Bardstown,KY,40004,USA,502-827-1130
TASTKY - A Taste Of Kentucky,11800 Shelbyville Road,Louisville,KY,40243,USA,800-444-0552
TODDYS - Toddy's Liquor,110 South 4Th Street,Bardstown,KY,40004,USA,502-348-1444
WILDTK - Wild Turkey Distillery Gift St,1417 Versailles Road,Lawrenceburg,KY,40342,USA,502-839-2182
WILLET - Willett Distillery,1869 Loretto Road,Bardstown,KY,40004,USA,502-501-9699
WOODFD - Woodford Reserve Distillery,7855 Mccracken Pike,Versailles,KY,40383,USA,859-879-1938
4ROSEW - Four Roses Warehouse & Bottling Facility,624 Lotus Road,Cox's Creek,KY,40013,USA,502-543-2264
AKATO  - Aki Kato,1541 W. Wickieup Lane,Phoenix,AZ,85027,USA,623-582-4502
ANDERW - Anderson Wood Products,1381 Beech Street,Louisville,KY,40211,USA,502-778-5591
ANGELS - Angel's Envy Distillery,500 East Main Street,Louisville,KY,40202,USA,502-890-6280
ARLING - Churchill Downs,600 Hurstbourne Parkway,Louisville,KY,40222,USA,847-385-7736
BARD   - The Bard Distillery,5080 State Route 175 South,Graham,KY,42344,USA,270-338-6543
BARDBN - Bardstown Bourbon Company,1500 Parkway Drive,Bardstown,KY,40004,USA,502-252-6295
BBNCRK - Bourbon Creek LLC,1012 Ridgetree Lane,Lexington,KY,40514,USA,859-699-8414
BIGRED - Big Red Liquors,5445 S. East Street,Indinapolis,IN,46227,USA,317-510-2066
BLENDW - Blended Willow Rock Boutique,530 Folsom Jonesville Rd,Jonesville,KY,41052,USA,502-514-5577
BLUTRA - Bluegrass Traditions,207 N. Main Street,Versailles,KY,40383,USA,859-873-0003
BOONE  - Boone County Distilling Company,6895 Burlington Pike,Florence,KY,41042,USA,859-282-6545
BOUNDA - Boundary Oak Distillery,2000 Boundary Oak Drive,Radcliff,KY,40160,USA,270-491-0169
CALUMT - Calumet Farm-Bryna Reeves,3301 Versailles Road,Lexington,KY,40510,USA,000-000-0000
CAPOTB - Captial OTB - Marketing,1629 State Street,Schenectady,NY,12304,USA,518-344-5200
CHATEA - Chateau Bourbon,10630 Meeting Street,Prospect,KY,40059,USA,502-290-6553
CHOC2  - Choctaw Casino Resort - Durant,PO Box 1550,Durant,OK,74702,USA,(580) 920-0160 Ext. 1287
CHOCTA - Choctaw Casino - Pocola,PO Box 429,Pocola,OK,74902,USA,918-436-7761
CJONES - Casey Jones Distillery,2815 Witty Lane,Hopkinsville,KY,42240,USA,270-839-9988
CLAIBO - CLAIBORNE FARM,703 WINCHESTER ROAD,PARIS,KY,40361,USA,859-987-2330
COMKY  - Completely Kentucky,237 W. Broadway,Frankfort,KY,40601,USA,502-223-5240
CORBAR - Cork & Barrel,4104 Heraldry Court,Lexington,KY,40513,USA,859-278-9463
CUMMIN - Cummins Ferry RV Park,PO Box 97,Perryville,KY,40468,USA,502-645-3595
DALLAS - Timothy Dallas,PO BOX 60297,SEATTLE,WA,98160,USA,206.542.8866
EDLEW  - Ed Lewi Associates,472 Albany Shaker Road,Albany,NY,12211,USA,518-867-7943
EVERY  - Everything Kentucky,3000 Plum Woods Ct,Sellersburg,IN,47172,USA,502-759-5688
FAILTE - FAILTE IRISH IMPORTS,113 SOUTH UPPER STREET,LEXINGTON,KY,40507,USA,859-351-1608
GREYGO - Grey Goose Midway LLC,176 Jefferson Street,Lexington,KY,40508,USA,859-621-9933
GRIGGS - Griggs Imperial LLC,1285 Rokeby Rd,Upperville,VA,20171,USA,703-795-2253
JBCINT - Joseph Beth Booksellers Enterprises LLC,697 Wilmer Ave,Cincinnati,OH,45226,USA,513-412-5700
JEPTHA - Jeptha Creed Distillery,500 Gordon Lane,Shelvyville,KY,40065,USA,859-319-1664
JILLIN - Jillian's Specialty Gifts & Fi,2091 Lantern Ridge Dr. Suite 100,Richmond,KY,40475,USA,859-626-4423
JIMBM  - Jim Beam American Outpost,526 Happy Hollow Road Attn: Marsha Beam,Clermont,KY,40110,USA,502-215-2466
JPEPPR - James E. Pepper Distillery,1228 Manchester St. #100,Lexington,KY,40504,USA,859-309-3230
LEXEQU - Lexington Equine Insurance,Po Box 910662,Lexington,KY,40591,USA,859-221-1562
LUXROW - Lux Row Distillers,3050 E. John Rowan Blvd.,Bardstown,KY,40004,USA,502-592-2845
NEWRIF - New Riff Distilling LLC,24 Distillery Way,Newport,KY,41073,USA,859-261-7433
OLDFOR - Old Forester,119 West Main Street,Louisville,KY,40202,USA,502-269-8024
OZTYLR - Green River Distilling,10 Distillery Rd.,Owensboro,KY,42301,USA,270-925-9671
PEERLE - Kentucky Peerless Distilling Company,120 N. Tenth Street,Louisville,KY,40202,USA,502-533-7831
PENCPA - Pencil & Paper Development LLC,3430 Woodmont Blvd,Nashville,TN,37215,USA,502-741-8177
PIONEE - Pioneer Gaming LLC,38 College Avenue,Waterville,ME,04901,USA,203-500-2082
POMEGR - The Pomegranate Shoppe,107 South Side Square,Shelbyville,TN,37160,USA,931-684-3673
PRESDI - Preservation Distillery,426 Sutherland Rd,Bardstown,KY,40004,USA,502-348-7779
RESIE  - Residence Inn,3110 Wall Street,Lexington,KY,40513,USA,859-296-0460
STITZW - Stitzel-Wheeler Distillery,323 Queensway Drive,Lexington,KY,40502,USA,859-333-8399
SUNVEN - Sun Ventures,100 Paveillon  Circle At Falls Creek,Louisa,KY,41230,USA,606-638-0002
SWEET  - Sweet Home Antiques,PO Box 1707,Pine Mountain,GA,31822,USA,706-663-7776
VALSAD - Valencia Sport Saddlery,11344 Foothill Blvd.,Lake View Terrace,CA,91342,USA,818-834-5500
WESTWH - Westport Whiskey And Wine,1115 Herr Lane Suite 140,Louisville,KY,40222,USA,502-708-1313
WINSTA - WinStar Farm,3001 Pisgah Pike,Versailles,KY,40383,USA,859-873-1717 x 329
WTRL   - Wilderness Trail Distillery,4095 Lebanon Road,Danville,KY,40422,USA,859-402-8707/859-757-0995
BARREL - The Barrel Market,2100 The Summit At Fritz Farm Suite 165,Lexington,KY,40517,USA,859-321-2293
BLUE G - Bluegrass Distillers,501 W 6th St STE #165,Lexington,KY,40508,USA,502-794-4350
BUYS4G - Premier Ventures / Buys for Guys.com,319 E. Van Emmon Unit B,Yorkville,IL,60560,USA,708-975-0888
HART   - Hartfield & Co,108 East 4th Street,Paris,KY,40361,USA,859-474-0345
KYADIS - Kentucky Artisan Distillery Copperhead Distillery Company,6230 Old Lagrange Rd.,Crestwood,KY,40014,USA,502-241-3070
LANIAD - MainMerch,150 E Grove St FL 3,Dunmore,PA,18510,USA,570-832-2591
LINKBC - Link-Belt Cranes Parts Distribution Center LBCE Dock #2,2651 Palumbo Dr.,Lexington,KY,40509,USA,859-264-6316
LIQSTP - LIQUOR STOP 1,865 N LAMB BLVD STE 2,LAS VEGAS,NV,89110,USA,702-738-9802
LIQUSA - Blue Rose Spirits LLC,PO Box 3222,Louisville,KY,40201,USA,502-589-8181
LOGSTL - Log Still Distilling LLC,225 Dee Head Road ATTN: Lynne Dant,New Haven,KY,40051,USA,502-917-0700
LOUTOU - LOUISVILLE TOURISM,401 W. MAIN #2300,LOUISVILLE,KY,40202,USA,502-560-1461
MAMMGT - Mammoth Cave Hotel Gift Shop,13725 Metcalf Ave Suite 426,Overland Park,KS,66223,USA,913-340-9127
MERCAN - Bluegrass Mercantile LLC,4651 Iron Works Pike Suite 155,Lexington,KY,40511,USA,615-738-1230
MOHEGA - Mohegan Sun Mohegan Tribal Gaming Authorit,1 Mohegan Sun Blvd.,Uncasville,CT,6382,USA,860-862-7363
PARADI - The Paradies Shop,2849 Paces Ferry Rd. Overlook 1 Fourth Floor,Atlanta,GA,30339,USA,404-494-3324
RABBIT - Rabbit Hole Spirits LLC,711 East Jefferson Street,Louisville,KY,40202,USA,502-561-2000
SBCTCC - Shepherdsville/Bullitt County Tourist & Convention Commission,PO Box 147,Clermont,KY,40110,USA,502-543-1901
SSSPRI - Second Sight Spirits LLC,301 Elm Street,Ludlow,KY,41016,USA,702-767-3048
TOTALW - Total Wine & More,6600 Rockledge Drive Suite 150,Bethesda,MD,20817,USA,301-795-1000
VISLEX - VisitLEX-,215 West Main Street Suite 150,Lexington,KY,40507,USA,859-244-7723
ZENTRA - Zentra LLC,110 Associates Lane,Indian Trail,NC,28079,USA,704-684-5721
ALSHAQ - Al Shaqab Racing,PO Box 93738 Villa No. 6 Street 640,Zone 54,Muraikh Area,Doha,Qatar,33 619073348
ASSIND - Assiniboia Downs,3975 Portage Avenue,Winnipeg,MB,R3K2E9,Canada,204-885-3330
HANKDD - Hank Daddy's Barbecue,125 Cherokee Drive,Maple,ON,L6A1X1,Canada,905-417-4545
